{
  "norad_id": 44622,
  "name": "GAOFEN-10R",
  "history": [
    {
      "epoch": "2026-03-28T22:16:13.806912Z",
      "apogee_km": 625.0272058963401,
      "perigee_km": 615.5939983734233,
      "latitude_deg": -5.1175986204264564e-05,
      "longitude_deg": -119.43077455969312,
      "height_km": 620.1360864433553,
      "semi_major_axis_km": 6998.447602134882,
      "eccentricity": 0.00067395,
      "inclination_deg": 98.0425,
      "raan_deg": 40.9681,
      "arg_perigee_deg": 47.5107,
      "mean_anomaly_deg": 312.6674,
      "mean_motion_rev_day": 14.82860132
    },
    {
      "epoch": "2026-03-29T04:44:54.237408Z",
      "apogee_km": 625.0117429967086,
      "perigee_km": 615.5946418737676,
      "latitude_deg": -3.081689108189804e-05,
      "longitude_deg": 143.40612446040686,
      "height_km": 620.0932286493359,
      "semi_major_axis_km": 6998.440192435238,
      "eccentricity": 0.0006728,
      "inclination_deg": 98.0426,
      "raan_deg": 41.2395,
      "arg_perigee_deg": 46.8302,
      "mean_anomaly_deg": 313.3472,
      "mean_motion_rev_day": 14.82862487
    },
    {
      "epoch": "2026-03-30T05:02:25.847232Z",
      "apogee_km": 624.964271679084,
      "perigee_km": 615.619969117527,
      "latitude_deg": -8.129179661901889e-07,
      "longitude_deg": 139.04497162845485,
      "height_km": 619.952667395973,
      "semi_major_axis_km": 6998.429120398305,
      "eccentricity": 0.0006676,
      "inclination_deg": 98.0428,
      "raan_deg": 42.2577,
      "arg_perigee_deg": 44.1665,
      "mean_anomaly_deg": 316.008,
      "mean_motion_rev_day": 14.82866006
    }
  ]
}